start=new Date('2022-05-13T00:00:00.000Z').valueOf();
sats=[{"OBJECT_NAME":"STARLINK-3537","OBJECT_TYPE":"PAYLOAD","GP_ID":"203394508","SEMIMAJOR_AXIS":"6716.793","RA_OF_ASC_NODE":"227.9305","ELEMENT_SET_NO":"999","SITE":"AFETR","NORAD_CAT_ID":"52088","APOAPSIS":"340.895","TIME_SYSTEM":"UTC","MEAN_ANOMALY":"132.8562","ECCENTRICITY":"0.00033300","CLASSIFICATION_TYPE":"U","PERIOD":"91.307","BSTAR":"0.00023680000000","TLE_LINE1":"1 52088U 22029A   22132.91667824  .00038930  00000-0  23680-3 0  9996","REV_AT_EPOCH":"130","EPOCH":"2022-05-12T22:00:00.999936","TLE_LINE2":"2 52088  53.2093 227.9305 0003330  15.0607 132.8562 15.77102133  1304","LAUNCH_DATE":"2022-03-19","REF_FRAME":"TEME","FILE":"3442534","EPHEMERIS_TYPE":"0","ARG_OF_PERICENTER":"15.0607","MEAN_MOTION":"15.77102133","COUNTRY_CODE":"US","INCLINATION":"53.2093","OBJECT_ID":"2022-029A","RCS_SIZE":"LARGE","MEAN_ELEMENT_THEORY":"SGP4","CENTER_NAME":"EARTH","MEAN_MOTION_DOT":"0.00038930","MEAN_MOTION_DDOT":"0.0000000000000","DECAY_DATE":null,"PERIAPSIS":"336.421"},{"ARG_OF_PERICENTER":"59.1302","EPHEMERIS_TYPE":"0","MEAN_MOTION":"15.25341908","OBJECT_ID":"2022-029B","INCLINATION":"53.2172","COUNTRY_CODE":"US","MEAN_ELEMENT_THEORY":"SGP4","RCS_SIZE":"LARGE","CENTER_NAME":"EARTH","MEAN_MOTION_DOT":"-0.00724996","MEAN_MOTION_DDOT":"0.0000000000000","DECAY_DATE":null,"PERIAPSIS":"488.721","REV_AT_EPOCH":"130","EPOCH":"2022-05-12T22:00:00.999936","TLE_LINE2":"2 52089  53.2172 240.1284 0001514  59.1302 139.8273 15.25341908  1303","LAUNCH_DATE":"2022-03-19","REF_FRAME":"TEME","FILE":"3442534","TIME_SYSTEM":"UTC","MEAN_ANOMALY":"139.8273","PERIOD":"94.405","ECCENTRICITY":"0.00015140","CLASSIFICATION_TYPE":"U","BSTAR":"-0.03043700000000","TLE_LINE1":"1 52089U 22029B   22132.91667824 -.00724996  00000-0 -30437-1 0  9999","OBJECT_NAME":"STARLINK-3722","OBJECT_TYPE":"PAYLOAD","SEMIMAJOR_AXIS":"6867.896","GP_ID":"203395016","ELEMENT_SET_NO":"999","RA_OF_ASC_NODE":"240.1284","SITE":"AFETR","APOAPSIS":"490.801","NORAD_CAT_ID":"52089"},{"MEAN_MOTION":"15.25727460","EPHEMERIS_TYPE":"0","ARG_OF_PERICENTER":"59.8131","RCS_SIZE":"LARGE","MEAN_ELEMENT_THEORY":"SGP4","COUNTRY_CODE":"US","INCLINATION":"53.2172","OBJECT_ID":"2022-029C","MEAN_MOTION_DDOT":"0.0000000000000","MEAN_MOTION_DOT":"-0.00726610","CENTER_NAME":"EARTH","PERIAPSIS":"487.581","DECAY_DATE":null,"EPOCH":"2022-05-12T22:00:00.999936","REV_AT_EPOCH":"130","TLE_LINE2":"2 52090  53.2172 240.1285 0001489  59.8131 184.0288 15.25727460  1303","LAUNCH_DATE":"2022-03-19","FILE":"3442534","REF_FRAME":"TEME","TIME_SYSTEM":"UTC","MEAN_ANOMALY":"184.0288","ECCENTRICITY":"0.00014890","CLASSIFICATION_TYPE":"U","PERIOD":"94.381","BSTAR":"-0.03015600000000","TLE_LINE1":"1 52090U 22029C   22132.91667824 -.00726610  00000-0 -30156-1 0  9994","OBJECT_NAME":"STARLINK-3712","OBJECT_TYPE":"PAYLOAD","SEMIMAJOR_AXIS":"6866.739","GP_ID":"203394931","RA_OF_ASC_NODE":"240.1285","ELEMENT_SET_NO":"999","NORAD_CAT_ID":"52090","APOAPSIS":"489.626","SITE":"AFETR"},{"REV_AT_EPOCH":"130","EPOCH":"2022-05-12T22:00:00.999936","TLE_LINE2":"2 52091  53.2172 240.1284 0001453  64.9130 149.0446 15.25470451  1302","LAUNCH_DATE":"2022-03-19","REF_FRAME":"TEME","FILE":"3442534","EPHEMERIS_TYPE":"0","ARG_OF_PERICENTER":"64.9130","MEAN_MOTION":"15.25470451","COUNTRY_CODE":"US","OBJECT_ID":"2022-029D","INCLINATION":"53.2172","RCS_SIZE":"LARGE","MEAN_ELEMENT_THEORY":"SGP4","CENTER_NAME":"EARTH","MEAN_MOTION_DOT":"-0.00725570","MEAN_MOTION_DDOT":"0.0000000000000","DECAY_DATE":null,"PERIAPSIS":"488.377","OBJECT_NAME":"STARLINK-3713","OBJECT_TYPE":"PAYLOAD","SEMIMAJOR_AXIS":"6867.510","GP_ID":"203394763","RA_OF_ASC_NODE":"240.1284","ELEMENT_SET_NO":"999","SITE":"AFETR","NORAD_CAT_ID":"52091","APOAPSIS":"490.373","MEAN_ANOMALY":"149.0446","TIME_SYSTEM":"UTC","ECCENTRICITY":"0.00014530","CLASSIFICATION_TYPE":"U","PERIOD":"94.397","BSTAR":"-0.03034500000000","TLE_LINE1":"1 52091U 22029D   22132.91667824 -.00725570  00000-0 -30345-1 0  9999"},{"BSTAR":"-0.03025300000000","TLE_LINE1":"1 52092U 22029E   22132.91667824 -.00726142  00000-0 -30253-1 0  9994","MEAN_ANOMALY":"160.0512","TIME_SYSTEM":"UTC","ECCENTRICITY":"0.00014140","CLASSIFICATION_TYPE":"U","PERIOD":"94.389","RA_OF_ASC_NODE":"240.1285","ELEMENT_SET_NO":"999","SITE":"AFETR","NORAD_CAT_ID":"52092","APOAPSIS":"489.960","OBJECT_TYPE":"PAYLOAD","OBJECT_NAME":"STARLINK-3716","SEMIMAJOR_AXIS":"6867.124","GP_ID":"203394846","CENTER_NAME":"EARTH","MEAN_MOTION_DOT":"-0.00726142","MEAN_MOTION_DDOT":"0.0000000000000","DECAY_DATE":null,"PERIAPSIS":"488.018","EPHEMERIS_TYPE":"0","ARG_OF_PERICENTER":"68.8678","MEAN_MOTION":"15.25598968","COUNTRY_CODE":"US","INCLINATION":"53.2172","OBJECT_ID":"2022-029E","RCS_SIZE":"LARGE","MEAN_ELEMENT_THEORY":"SGP4","LAUNCH_DATE":"2022-03-19","REF_FRAME":"TEME","FILE":"3442534","REV_AT_EPOCH":"130","EPOCH":"2022-05-12T22:00:00.999936","TLE_LINE2":"2 52092  53.2172 240.1285 0001414  68.8678 160.0512 15.25598968  1302"},{"TLE_LINE2":"2 52093  53.2172 240.1273 0001395  65.3159 208.5607 15.25976754  1300","EPOCH":"2022-05-12T22:00:00.999936","REV_AT_EPOCH":"130","FILE":"3442534","REF_FRAME":"TEME","LAUNCH_DATE":"2022-03-19","MEAN_ELEMENT_THEORY":"SGP4","RCS_SIZE":"LARGE","INCLINATION":"53.2172","OBJECT_ID":"2022-029F","COUNTRY_CODE":"US","MEAN_MOTION":"15.25976754","ARG_OF_PERICENTER":"65.3159","EPHEMERIS_TYPE":"0","PERIAPSIS":"486.898","DECAY_DATE":null,"MEAN_MOTION_DDOT":"0.0000000000000","MEAN_MOTION_DOT":"-0.00727345","CENTER_NAME":"EARTH","SEMIMAJOR_AXIS":"6865.991","GP_ID":"203394679","OBJECT_NAME":"STARLINK-3673","OBJECT_TYPE":"PAYLOAD","APOAPSIS":"488.814","NORAD_CAT_ID":"52093","SITE":"AFETR","ELEMENT_SET_NO":"999","RA_OF_ASC_NODE":"240.1273","PERIOD":"94.366","CLASSIFICATION_TYPE":"U","ECCENTRICITY":"0.00013950","MEAN_ANOMALY":"208.5607","TIME_SYSTEM":"UTC","TLE_LINE1":"1 52093U 22029F   22132.91667824 -.00727345  00000-0 -29962-1 0  9996","BSTAR":"-0.02996200000000"},{"GP_ID":"203394594","SEMIMAJOR_AXIS":"6866.354","OBJECT_NAME":"STARLINK-3714","OBJECT_TYPE":"PAYLOAD","APOAPSIS":"489.154","NORAD_CAT_ID":"52094","SITE":"AFETR","ELEMENT_SET_NO":"999","RA_OF_ASC_NODE":"240.1283","PERIOD":"94.373","ECCENTRICITY":"0.00013630","CLASSIFICATION_TYPE":"U","TIME_SYSTEM":"UTC","MEAN_ANOMALY":"183.7322","TLE_LINE1":"1 52094U 22029G   22132.91667824 -.00726981  00000-0 -30056-1 0  9998","BSTAR":"-0.03005600000000","TLE_LINE2":"2 52094  53.2172 240.1283 0001363  74.9938 183.7322 15.25855874  1305","EPOCH":"2022-05-12T22:00:00.999936","REV_AT_EPOCH":"130","FILE":"3442534","REF_FRAME":"TEME","LAUNCH_DATE":"2022-03-19","MEAN_ELEMENT_THEORY":"SGP4","RCS_SIZE":"LARGE","INCLINATION":"53.2172","OBJECT_ID":"2022-029G","COUNTRY_CODE":"US","MEAN_MOTION":"15.25855874","ARG_OF_PERICENTER":"74.9938","EPHEMERIS_TYPE":"0","PERIAPSIS":"487.283","DECAY_DATE":null,"MEAN_MOTION_DDOT":"0.0000000000000","CENTER_NAME":"EARTH","MEAN_MOTION_DOT":"-0.00726981"},{"LAUNCH_DATE":"2022-03-19","REF_FRAME":"TEME","FILE":"3442534","REV_AT_EPOCH":"130","EPOCH":"2022-05-12T22:00:00.999936","TLE_LINE2":"2 52095  53.2172 240.1266 0001274  79.4351 224.0212 15.26233328  1309","MEAN_MOTION_DOT":"-0.00727523","CENTER_NAME":"EARTH","MEAN_MOTION_DDOT":"0.0000000000000","DECAY_DATE":null,"PERIAPSIS":"486.212","EPHEMERIS_TYPE":"0","ARG_OF_PERICENTER":"79.4351","MEAN_MOTION":"15.26233328","COUNTRY_CODE":"US","OBJECT_ID":"2022-029H","INCLINATION":"53.2172","RCS_SIZE":"LARGE","MEAN_ELEMENT_THEORY":"SGP4","RA_OF_ASC_NODE":"240.1266","ELEMENT_SET_NO":"999","SITE":"AFETR","NORAD_CAT_ID":"52095","APOAPSIS":"487.961","OBJECT_TYPE":"PAYLOAD","OBJECT_NAME":"STARLINK-3701","GP_ID":"203395102","SEMIMAJOR_AXIS":"6865.221","BSTAR":"-0.02973800000000","TLE_LINE1":"1 52095U 22029H   22132.91667824 -.00727523  00000-0 -29738-1 0  9997","MEAN_ANOMALY":"224.0212","TIME_SYSTEM":"UTC","ECCENTRICITY":"0.00012740","CLASSIFICATION_TYPE":"U","PERIOD":"94.350"},{"TLE_LINE1":"1 52096U 22029J   22132.91667824 -.00123103  00000-0 -21879-2 0  9991","BSTAR":"-0.00218790000000","ECCENTRICITY":"0.00011630","CLASSIFICATION_TYPE":"U","PERIOD":"92.904","TIME_SYSTEM":"UTC","MEAN_ANOMALY":"219.7880","NORAD_CAT_ID":"52096","APOAPSIS":"417.579","SITE":"AFETR","RA_OF_ASC_NODE":"234.2469","ELEMENT_SET_NO":"999","GP_ID":"203394509","SEMIMAJOR_AXIS":"6794.924","OBJECT_TYPE":"PAYLOAD","OBJECT_NAME":"STARLINK-3717","PERIAPSIS":"415.998","DECAY_DATE":null,"MEAN_MOTION_DDOT":"0.0000000000000","MEAN_MOTION_DOT":"-0.00123103","CENTER_NAME":"EARTH","RCS_SIZE":"LARGE","MEAN_ELEMENT_THEORY":"SGP4","COUNTRY_CODE":"US","OBJECT_ID":"2022-029J","INCLINATION":"53.2125","MEAN_MOTION":"15.49979271","EPHEMERIS_TYPE":"0","ARG_OF_PERICENTER":"25.7243","FILE":"3442534","REF_FRAME":"TEME","LAUNCH_DATE":"2022-03-19","TLE_LINE2":"2 52096  53.2125 234.2469 0001163  25.7243 219.7880 15.49979271  1309","EPOCH":"2022-05-12T22:00:00.999936","REV_AT_EPOCH":"130"},{"BSTAR":"-0.02984900000000","TLE_LINE1":"1 52098U 22029L   22132.91667824 -.00727408  00000-0 -29849-1 0  9995","MEAN_ANOMALY":"204.8197","TIME_SYSTEM":"UTC","PERIOD":"94.358","ECCENTRICITY":"0.00012770","CLASSIFICATION_TYPE":"U","ELEMENT_SET_NO":"999","RA_OF_ASC_NODE":"240.1271","APOAPSIS":"488.348","NORAD_CAT_ID":"52098","SITE":"AFETR","OBJECT_TYPE":"PAYLOAD","OBJECT_NAME":"STARLINK-3665","SEMIMAJOR_AXIS":"6865.606","GP_ID":"203395017","MEAN_MOTION_DDOT":"0.0000000000000","MEAN_MOTION_DOT":"-0.00727408","CENTER_NAME":"EARTH","PERIAPSIS":"486.595","DECAY_DATE":null,"MEAN_MOTION":"15.26105024","ARG_OF_PERICENTER":"83.8661","EPHEMERIS_TYPE":"0","MEAN_ELEMENT_THEORY":"SGP4","RCS_SIZE":"LARGE","INCLINATION":"53.2172","OBJECT_ID":"2022-029L","COUNTRY_CODE":"US","LAUNCH_DATE":"2022-03-19","FILE":"3442534","REF_FRAME":"TEME","EPOCH":"2022-05-12T22:00:00.999936","REV_AT_EPOCH":"130","TLE_LINE2":"2 52098  53.2172 240.1271 0001277  83.8661 204.8197 15.26105024  1303"}];
